QIANFAN-105             
1 66047U 25233Q   26021.71016019  .00000167  00000+0  15207-3 0  9995
2 66047  88.9943  57.7828 0014222 267.1530  92.8009 13.78552380 13541
QIANFAN-106             
1 66048U 25233R   26023.99018785  .00000073  00000+0  93867-4 0  9995
2 66048  88.9906  57.7783 0001961 104.5115 255.6254 13.50993296 13726
QIANFAN-107             
1 66049U 25233S   26023.92430568  .00000036  00000+0  36478-4 0  9990
2 66049  88.9923  57.7946 0001937  90.0315 270.1059 13.50990587 13715
QIANFAN-108             
1 66050U 25233T   26023.55856598 -.02080112  00000+0 -35571+1 0  9992
2 66050  88.9851  57.8378 0006297 327.2737  32.8022 13.48900487 13668
